{
 "type": "Feature",
 "properties": {
  "code": "DH",
  "name": "Duc Hoa",
  "basis": "pre-2025-merger extent, unioned from OSM boundary/historic relations",
  "parts": 1,
  "missingParts": 0,
  "areaKm2": 427.4,
  "bbox": [
   106.27082,
   10.7409,
   106.53287,
   11.02578
  ],
  "center": [
   10.88904,
   106.40896
  ],
  "generatedAt": "2026-08-30T04:03:11.323Z"
 },
 "geometry": {
  "type": "Polygon",
  "coordinates": [
   [
    [
     106.2708229,
     11.0143718
    ],
    [
     106.2716241,
     11.0123102
    ],
    [
     106.2828627,
     11.00478
    ],
    [
     106.2868812,
     10.9935494
    ],
    [
     106.2863675,
     10.9908216
    ],
    [
     106.2831164,
     10.9860504
    ],
    [
     106.2737989,
     10.9818653
    ],
    [
     106.2723237,
     10.9789268
    ],
    [
     106.272364,
     10.9766213
    ],
    [
     106.277373,
     10.97434
    ],
    [
     106.288671,
     10.973062
    ],
    [
     106.28977,
     10.971577
    ],
    [
     106.283979,
     10.957844
    ],
    [
     106.283757,
     10.955816
    ],
    [
     106.285993,
     10.952844
    ],
    [
     106.296165,
     10.944885
    ],
    [
     106.299939,
     10.940861
    ],
    [
     106.303055,
     10.919617
    ],
    [
     106.302771,
     10.911197
    ],
    [
     106.3035921,
     10.9087361
    ],
    [
     106.3053432,
     10.9064512
    ],
    [
     106.3103245,
     10.9044218
    ],
    [
     106.328342,
     10.898802
    ],
    [
     106.3355797,
     10.893552
    ],
    [
     106.339096,
     10.889392
    ],
    [
     106.340046,
     10.886711
    ],
    [
     106.339786,
     10.883923
    ],
    [
     106.334568,
     10.87386
    ],
    [
     106.335809,
     10.868353
    ],
    [
     106.342127,
     10.861411
    ],
    [
     106.341553,
     10.856251
    ],
    [
     106.338006,
     10.849102
    ],
    [
     106.33848,
     10.845878
    ],
    [
     106.34176,
     10.843466
    ],
    [
     106.358607,
     10.841727
    ],
    [
     106.358825,
     10.839626
    ],
    [
     106.356896,
     10.836604
    ],
    [
     106.356196,
     10.833671
    ],
    [
     106.356687,
     10.829524
    ],
    [
     106.360126,
     10.822964
    ],
    [
     106.364083,
     10.820279
    ],
    [
     106.367052,
     10.819551
    ],
    [
     106.371178,
     10.820615
    ],
    [
     106.378262,
     10.826691
    ],
    [
     106.382717,
     10.826341
    ],
    [
     106.386601,
     10.823693
    ],
    [
     106.390408,
     10.818871
    ],
    [
     106.391742,
     10.815266
    ],
    [
     106.3904002,
     10.8038032
    ],
    [
     106.3908291,
     10.8006586
    ],
    [
     106.394357,
     10.795162
    ],
    [
     106.398697,
     10.79206
    ],
    [
     106.413741,
     10.787096
    ],
    [
     106.415613,
     10.788397
    ],
    [
     106.417142,
     10.793882
    ],
    [
     106.418757,
     10.795691
    ],
    [
     106.421691,
     10.796411
    ],
    [
     106.426675,
     10.794485
    ],
    [
     106.4287958,
     10.7917536
    ],
    [
     106.4288278,
     10.7880422
    ],
    [
     106.4272052,
     10.7844262
    ],
    [
     106.4225716,
     10.7820609
    ],
    [
     106.4233589,
     10.7781153
    ],
    [
     106.4245686,
     10.7770535
    ],
    [
     106.4242682,
     10.7753909
    ],
    [
     106.4298767,
     10.7752538
    ],
    [
     106.4290237,
     10.7732197
    ],
    [
     106.4313573,
     10.7720498
    ],
    [
     106.4314485,
     10.7726874
    ],
    [
     106.4340824,
     10.7708482
    ],
    [
     106.4386349,
     10.7640713
    ],
    [
     106.4385885,
     10.7629011
    ],
    [
     106.4395589,
     10.7627403
    ],
    [
     106.4426401,
     10.7581245
    ],
    [
     106.4488692,
     10.7629376
    ],
    [
     106.4661748,
     10.740899
    ],
    [
     106.4722331,
     10.7455255
    ],
    [
     106.4635618,
     10.7565046
    ],
    [
     106.4885044,
     10.7754906
    ],
    [
     106.5045619,
     10.7889222
    ],
    [
     106.5200679,
     10.8522195
    ],
    [
     106.5328728,
     10.8999003
    ],
    [
     106.5325466,
     10.9014489
    ],
    [
     106.5315364,
     10.9026658
    ],
    [
     106.4535377,
     10.9419195
    ],
    [
     106.4118982,
     10.973542
    ],
    [
     106.3731933,
     10.9696228
    ],
    [
     106.3511251,
     10.9988937
    ],
    [
     106.3455329,
     10.9947858
    ],
    [
     106.3430053,
     11.0012811
    ],
    [
     106.3378339,
     11.0052375
    ],
    [
     106.327824,
     11.0098801
    ],
    [
     106.3120618,
     11.0199771
    ],
    [
     106.300806,
     11.0226745
    ],
    [
     106.2976075,
     11.0240541
    ],
    [
     106.296914,
     11.0257756
    ],
    [
     106.2943806,
     11.0250353
    ],
    [
     106.2924536,
     11.0255702
    ],
    [
     106.2914359,
     11.0253081
    ],
    [
     106.2910353,
     11.0234166
    ],
    [
     106.2873844,
     11.0245535
    ],
    [
     106.2880078,
     11.0219182
    ],
    [
     106.2841263,
     11.0220866
    ],
    [
     106.2790618,
     11.0158957
    ],
    [
     106.2764274,
     11.0198205
    ],
    [
     106.2738652,
     11.0216199
    ],
    [
     106.2708229,
     11.0143718
    ]
   ]
  ]
 }
}
