{
 "type": "Feature",
 "properties": {
  "code": "DL",
  "name": "Da Lat",
  "basis": "pre-2025-merger extent, unioned from OSM boundary/historic relations",
  "parts": 1,
  "missingParts": 0,
  "areaKm2": 392.7,
  "bbox": [
   108.31521,
   11.80798,
   108.5944,
   12.00855
  ],
  "center": [
   11.92057,
   108.46436
  ],
  "generatedAt": "2026-08-30T04:03:09.261Z"
 },
 "geometry": {
  "type": "Polygon",
  "coordinates": [
   [
    [
     108.3152058,
     11.927614
    ],
    [
     108.316198,
     11.9264101
    ],
    [
     108.3155635,
     11.9255357
    ],
    [
     108.3188175,
     11.9245676
    ],
    [
     108.3183108,
     11.9220076
    ],
    [
     108.3192884,
     11.9194413
    ],
    [
     108.3187795,
     11.9167729
    ],
    [
     108.3193803,
     11.9145684
    ],
    [
     108.3206909,
     11.9122436
    ],
    [
     108.325864,
     11.9077509
    ],
    [
     108.3261529,
     11.9058736
    ],
    [
     108.3277193,
     11.9062121
    ],
    [
     108.3272651,
     11.9071182
    ],
    [
     108.3320138,
     11.907374
    ],
    [
     108.3355299,
     11.9088104
    ],
    [
     108.3407113,
     11.9032
    ],
    [
     108.3393511,
     11.9026737
    ],
    [
     108.337886,
     11.9034778
    ],
    [
     108.337702,
     11.899492
    ],
    [
     108.3399409,
     11.8982476
    ],
    [
     108.3412993,
     11.8990104
    ],
    [
     108.343475,
     11.898535
    ],
    [
     108.3462077,
     11.8933019
    ],
    [
     108.3492971,
     11.8930775
    ],
    [
     108.3492127,
     11.8912564
    ],
    [
     108.3508319,
     11.89021
    ],
    [
     108.3548632,
     11.8940893
    ],
    [
     108.3565672,
     11.8939661
    ],
    [
     108.3589199,
     11.8953132
    ],
    [
     108.362765,
     11.898971
    ],
    [
     108.3659166,
     11.8994933
    ],
    [
     108.3665818,
     11.8979606
    ],
    [
     108.3692157,
     11.895895
    ],
    [
     108.3726503,
     11.8899253
    ],
    [
     108.3759963,
     11.8925906
    ],
    [
     108.3788073,
     11.8910053
    ],
    [
     108.3802041,
     11.8917804
    ],
    [
     108.3830076,
     11.8914725
    ],
    [
     108.3833616,
     11.8902859
    ],
    [
     108.3848154,
     11.8895722
    ],
    [
     108.3863387,
     11.8862116
    ],
    [
     108.3855164,
     11.8836254
    ],
    [
     108.3880759,
     11.8808294
    ],
    [
     108.3885813,
     11.878706
    ],
    [
     108.3925885,
     11.8787925
    ],
    [
     108.3941871,
     11.8778423
    ],
    [
     108.3964616,
     11.8756139
    ],
    [
     108.3978939,
     11.8753777
    ],
    [
     108.3989262,
     11.8734725
    ],
    [
     108.4038323,
     11.8698918
    ],
    [
     108.4056155,
     11.8675688
    ],
    [
     108.410019,
     11.865684
    ],
    [
     108.4131681,
     11.8660002
    ],
    [
     108.4174177,
     11.8621484
    ],
    [
     108.4174385,
     11.8600446
    ],
    [
     108.4190421,
     11.8571685
    ],
    [
     108.4254134,
     11.8536775
    ],
    [
     108.4263972,
     11.853522
    ],
    [
     108.4294099,
     11.8618557
    ],
    [
     108.4354676,
     11.8654846
    ],
    [
     108.4417331,
     11.8711065
    ],
    [
     108.4433842,
     11.8729051
    ],
    [
     108.4443068,
     11.876362
    ],
    [
     108.4466913,
     11.8769788
    ],
    [
     108.4506692,
     11.880267
    ],
    [
     108.4534516,
     11.880048
    ],
    [
     108.4546307,
     11.8816426
    ],
    [
     108.4556778,
     11.8813127
    ],
    [
     108.4605405,
     11.8851377
    ],
    [
     108.4613609,
     11.884784
    ],
    [
     108.4620805,
     11.880006
    ],
    [
     108.4659826,
     11.8788892
    ],
    [
     108.4659226,
     11.8776922
    ],
    [
     108.4672444,
     11.8770562
    ],
    [
     108.4690556,
     11.8738391
    ],
    [
     108.4804818,
     11.8697947
    ],
    [
     108.4867823,
     11.8697448
    ],
    [
     108.4880399,
     11.8674047
    ],
    [
     108.4918816,
     11.8643179
    ],
    [
     108.4884543,
     11.8633051
    ],
    [
     108.4866844,
     11.8610255
    ],
    [
     108.4807295,
     11.8572565
    ],
    [
     108.4799488,
     11.8581435
    ],
    [
     108.4796851,
     11.8570271
    ],
    [
     108.4892982,
     11.8551423
    ],
    [
     108.4976158,
     11.847997
    ],
    [
     108.5029596,
     11.8443517
    ],
    [
     108.5051393,
     11.843936
    ],
    [
     108.5056283,
     11.840062
    ],
    [
     108.5056329,
     11.8387067
    ],
    [
     108.5000462,
     11.8335194
    ],
    [
     108.4972541,
     11.8333724
    ],
    [
     108.4970383,
     11.8320394
    ],
    [
     108.4947113,
     11.8314717
    ],
    [
     108.4928257,
     11.8288753
    ],
    [
     108.4904654,
     11.8286758
    ],
    [
     108.4901838,
     11.827459
    ],
    [
     108.4872372,
     11.8251357
    ],
    [
     108.4924323,
     11.8221625
    ],
    [
     108.4937909,
     11.8228083
    ],
    [
     108.4975518,
     11.8174608
    ],
    [
     108.4975149,
     11.8165241
    ],
    [
     108.4966341,
     11.8163684
    ],
    [
     108.5049665,
     11.812755
    ],
    [
     108.5048336,
     11.8111806
    ],
    [
     108.5195199,
     11.8148003
    ],
    [
     108.5215775,
     11.8141352
    ],
    [
     108.5225771,
     11.8107642
    ],
    [
     108.5257613,
     11.8095039
    ],
    [
     108.5304701,
     11.8100963
    ],
    [
     108.5345109,
     11.8079789
    ],
    [
     108.5357343,
     11.8111428
    ],
    [
     108.5383907,
     11.8139162
    ],
    [
     108.5427796,
     11.8158515
    ],
    [
     108.5423684,
     11.8203563
    ],
    [
     108.5438242,
     11.8207458
    ],
    [
     108.5453664,
     11.8234129
    ],
    [
     108.5454899,
     11.8258613
    ],
    [
     108.5476716,
     11.8270199
    ],
    [
     108.5498223,
     11.8310622
    ],
    [
     108.5769126,
     11.8470598
    ],
    [
     108.5775328,
     11.846951
    ],
    [
     108.5772318,
     11.8457158
    ],
    [
     108.5792868,
     11.8463822
    ],
    [
     108.5804021,
     11.8492176
    ],
    [
     108.5832828,
     11.8496639
    ],
    [
     108.5831405,
     11.8517497
    ],
    [
     108.584007,
     11.8533599
    ],
    [
     108.5896611,
     11.850958
    ],
    [
     108.5899761,
     11.8542387
    ],
    [
     108.5943979,
     11.8597492
    ],
    [
     108.5944033,
     11.8635973
    ],
    [
     108.5936469,
     11.8652405
    ],
    [
     108.5906266,
     11.8674623
    ],
    [
     108.5858256,
     11.8694246
    ],
    [
     108.587333,
     11.8707475
    ],
    [
     108.5863156,
     11.8739413
    ],
    [
     108.5860921,
     11.8788549
    ],
    [
     108.5869896,
     11.884147
    ],
    [
     108.585674,
     11.8889108
    ],
    [
     108.5834438,
     11.8900499
    ],
    [
     108.584007,
     11.8913544
    ],
    [
     108.5881215,
     11.8945669
    ],
    [
     108.5912678,
     11.8988975
    ],
    [
     108.5925257,
     11.9048815
    ],
    [
     108.5908362,
     11.9047458
    ],
    [
     108.584634,
     11.906674
    ],
    [
     108.5808448,
     11.9057455
    ],
    [
     108.5791542,
     11.9068248
    ],
    [
     108.5757344,
     11.9123813
    ],
    [
     108.5733545,
     11.9190061
    ],
    [
     108.5744557,
     11.9234675
    ],
    [
     108.5736859,
     11.9271391
    ],
    [
     108.5716742,
     11.9286035
    ],
    [
     108.5644348,
     11.9387051
    ],
    [
     108.5665767,
     11.94357
    ],
    [
     108.5655943,
     11.9482639
    ],
    [
     108.565791,
     11.9512733
    ],
    [
     108.5685468,
     11.9568236
    ],
    [
     108.5684985,
     11.9588242
    ],
    [
     108.5702754,
     11.959779
    ],
    [
     108.5707578,
     11.9632163
    ],
    [
     108.5663353,
     11.9652343
    ],
    [
     108.5639119,
     11.9685055
    ],
    [
     108.5562086,
     11.9750547
    ],
    [
     108.5549292,
     11.9745791
    ],
    [
     108.5512573,
     11.976217
    ],
    [
     108.5488915,
     11.975443
    ],
    [
     108.5458526,
     11.9760261
    ],
    [
     108.5382975,
     11.9802995
    ],
    [
     108.5350347,
     11.9839129
    ],
    [
     108.5324571,
     11.9837561
    ],
    [
     108.531717,
     11.9844035
    ],
    [
     108.5298398,
     11.9838024
    ],
    [
     108.5280937,
     11.9854081
    ],
    [
     108.5251604,
     11.9839431
    ],
    [
     108.5230029,
     11.9845698
    ],
    [
     108.5168445,
     11.9838851
    ],
    [
     108.5143581,
     11.9865954
    ],
    [
     108.5094198,
     11.9854659
    ],
    [
     108.5074487,
     11.9862884
    ],
    [
     108.5074434,
     11.9874323
    ],
    [
     108.5050079,
     11.9867239
    ],
    [
     108.5004723,
     11.9889279
    ],
    [
     108.4988898,
     11.9889174
    ],
    [
     108.4983708,
     11.9903
    ],
    [
     108.4962384,
     11.9897176
    ],
    [
     108.4934143,
     11.9924783
    ],
    [
     108.4917758,
     11.9929967
    ],
    [
     108.4867705,
     11.9921139
    ],
    [
     108.4841893,
     11.9927834
    ],
    [
     108.4814588,
     11.9918428
    ],
    [
     108.480915,
     11.9899734
    ],
    [
     108.4790024,
     11.9910976
    ],
    [
     108.47646,
     11.9887641
    ],
    [
     108.4746406,
     11.9889141
    ],
    [
     108.4735549,
     11.9937011
    ],
    [
     108.4684176,
     11.9941634
    ],
    [
     108.4661267,
     11.9964565
    ],
    [
     108.4655568,
     11.9981064
    ],
    [
     108.4632665,
     11.9988476
    ],
    [
     108.4640953,
     12.0011563
    ],
    [
     108.4639326,
     12.0040596
    ],
    [
     108.4630041,
     12.006108
    ],
    [
     108.4606576,
     12.0077037
    ],
    [
     108.4586876,
     12.0071292
    ],
    [
     108.4557289,
     12.0085517
    ],
    [
     108.4525386,
     12.0074125
    ],
    [
     108.4491161,
     12.0028764
    ],
    [
     108.4455595,
     12.0018847
    ],
    [
     108.4416332,
     11.9994554
    ],
    [
     108.4392751,
     11.9942801
    ],
    [
     108.4357747,
     11.994856
    ],
    [
     108.4349459,
     11.9938512
    ],
    [
     108.4342056,
     11.9949557
    ],
    [
     108.4340098,
     11.9942316
    ],
    [
     108.4323415,
     11.9937882
    ],
    [
     108.4296783,
     11.9972894
    ],
    [
     108.426299,
     11.9988905
    ],
    [
     108.4246811,
     12.0006316
    ],
    [
     108.418006,
     11.9999541
    ],
    [
     108.4140979,
     12.0035284
    ],
    [
     108.4073406,
     12.0047523
    ],
    [
     108.4021675,
     12.001404
    ],
    [
     108.3986785,
     12.0004758
    ],
    [
     108.3980146,
     11.9988518
    ],
    [
     108.396414,
     11.9991318
    ],
    [
     108.3949646,
     11.9980347
    ],
    [
     108.3901299,
     11.9972031
    ],
    [
     108.3878185,
     11.9944481
    ],
    [
     108.3851534,
     11.9934314
    ],
    [
     108.3832651,
     11.9909783
    ],
    [
     108.3773089,
     11.9889549
    ],
    [
     108.3736041,
     11.9858629
    ],
    [
     108.3682091,
     11.98936
    ],
    [
     108.3675136,
     11.9892081
    ],
    [
     108.3674564,
     11.9880852
    ],
    [
     108.3650316,
     11.9892036
    ],
    [
     108.3632321,
     11.9884051
    ],
    [
     108.3639532,
     11.9906897
    ],
    [
     108.3615177,
     11.9918917
    ],
    [
     108.3600694,
     11.9910701
    ],
    [
     108.3575803,
     11.9924816
    ],
    [
     108.3555365,
     11.9918874
    ],
    [
     108.3554614,
     11.9894172
    ],
    [
     108.3564618,
     11.9870978
    ],
    [
     108.35584,
     11.9862672
    ],
    [
     108.3525713,
     11.9833918
    ],
    [
     108.3501452,
     11.9830153
    ],
    [
     108.3482194,
     11.98036
    ],
    [
     108.3464947,
     11.9804072
    ],
    [
     108.3454226,
     11.9783962
    ],
    [
     108.3435845,
     11.9783502
    ],
    [
     108.3421147,
     11.9763613
    ],
    [
     108.3388056,
     11.9761253
    ],
    [
     108.3376419,
     11.9744863
    ],
    [
     108.3347334,
     11.9693438
    ],
    [
     108.33763,
     11.9676553
    ],
    [
     108.3379027,
     11.9635745
    ],
    [
     108.3332192,
     11.9645989
    ],
    [
     108.3320466,
     11.9656043
    ],
    [
     108.329386,
     11.9646818
    ],
    [
     108.3284301,
     11.9628483
    ],
    [
     108.3252865,
     11.9619142
    ],
    [
     108.324345,
     11.9608593
    ],
    [
     108.3266504,
     11.9590113
    ],
    [
     108.3221215,
     11.9540789
    ],
    [
     108.3232856,
     11.9522893
    ],
    [
     108.3233178,
     11.9504524
    ],
    [
     108.3223892,
     11.9494488
    ],
    [
     108.3229476,
     11.9477864
    ],
    [
     108.3224219,
     11.9462644
    ],
    [
     108.3205375,
     11.9448313
    ],
    [
     108.3221923,
     11.9429909
    ],
    [
     108.3222906,
     11.9393128
    ],
    [
     108.3172773,
     11.9371097
    ],
    [
     108.3182485,
     11.935906
    ],
    [
     108.3181341,
     11.9346985
    ],
    [
     108.3152058,
     11.927614
    ]
   ]
  ]
 }
}
