{
 "type": "Feature",
 "properties": {
  "code": "DN",
  "name": "Da Nang",
  "basis": "pre-2025-merger extent, unioned from OSM boundary/historic relations",
  "parts": 7,
  "missingParts": 0,
  "areaKm2": 986.5,
  "bbox": [
   107.81854,
   15.91799,
   108.33864,
   16.2255
  ],
  "center": [
   16.07868,
   108.08095
  ],
  "generatedAt": "2026-08-30T04:03:06.884Z"
 },
 "geometry": {
  "type": "MultiPolygon",
  "coordinates": [
   [
    [
     [
      107.8185394,
      16.0582918
     ],
     [
      107.8200415,
      16.0566576
     ],
     [
      107.8317788,
      16.0544254
     ],
     [
      107.8332947,
      16.0552787
     ],
     [
      107.8336081,
      16.0568535
     ],
     [
      107.8384076,
      16.0590553
     ],
     [
      107.8396699,
      16.0604105
     ],
     [
      107.8423521,
      16.0595238
     ],
     [
      107.8472613,
      16.0605376
     ],
     [
      107.8486124,
      16.0591633
     ],
     [
      107.8501305,
      16.0588537
     ],
     [
      107.8523637,
      16.061395
     ],
     [
      107.8569862,
      16.0606683
     ],
     [
      107.8629997,
      16.0614828
     ],
     [
      107.8654106,
      16.0591419
     ],
     [
      107.8674039,
      16.0593795
     ],
     [
      107.8716903,
      16.0540752
     ],
     [
      107.8744506,
      16.0523109
     ],
     [
      107.8779986,
      16.0520076
     ],
     [
      107.8790769,
      16.0512292
     ],
     [
      107.8806487,
      16.0516674
     ],
     [
      107.8836152,
      16.0482442
     ],
     [
      107.8864691,
      16.0471513
     ],
     [
      107.8882393,
      16.048404
     ],
     [
      107.8897036,
      16.047546
     ],
     [
      107.8922711,
      16.0476167
     ],
     [
      107.8916827,
      16.0443885
     ],
     [
      107.8921792,
      16.0429457
     ],
     [
      107.8934804,
      16.0421814
     ],
     [
      107.893269,
      16.0401601
     ],
     [
      107.8969651,
      16.0389004
     ],
     [
      107.9016316,
      16.0336154
     ],
     [
      107.9161048,
      16.0452773
     ],
     [
      107.920195,
      16.0465026
     ],
     [
      107.9406309,
      16.0582067
     ],
     [
      107.9553938,
      16.0639082
     ],
     [
      107.9581283,
      16.0646853
     ],
     [
      107.9609084,
      16.0643309
     ],
     [
      107.9615709,
      16.0598939
     ],
     [
      107.9609228,
      16.054912
     ],
     [
      107.9581002,
      16.0461523
     ],
     [
      107.9581116,
      16.03678
     ],
     [
      107.9598677,
      16.0359354
     ],
     [
      107.9612946,
      16.0322439
     ],
     [
      107.9635614,
      16.0315451
     ],
     [
      107.9662617,
      16.0288121
     ],
     [
      107.9684814,
      16.0280548
     ],
     [
      107.9698026,
      16.0259435
     ],
     [
      107.969116,
      16.0240976
     ],
     [
      107.970555,
      16.0195691
     ],
     [
      107.9733328,
      16.0182889
     ],
     [
      107.9817438,
      16.0116816
     ],
     [
      107.9835355,
      16.0119394
     ],
     [
      107.9829786,
      16.0085306
     ],
     [
      107.981228,
      16.0059617
     ],
     [
      107.9821837,
      16.0047514
     ],
     [
      107.982173,
      16.002957
     ],
     [
      107.9806193,
      15.9999562
     ],
     [
      107.9817867,
      15.9966246
     ],
     [
      107.9807353,
      15.9933965
     ],
     [
      107.9809298,
      15.9886149
     ],
     [
      107.9757249,
      15.984898
     ],
     [
      107.9717266,
      15.9789345
     ],
     [
      107.9691589,
      15.9776162
     ],
     [
      107.9670889,
      15.9749409
     ],
     [
      107.9619766,
      15.9729795
     ],
     [
      107.9605571,
      15.9707053
     ],
     [
      107.9566491,
      15.9688126
     ],
     [
      107.954988,
      15.9659831
     ],
     [
      107.9562306,
      15.9640626
     ],
     [
      107.9558659,
      15.9585955
     ],
     [
      107.9509396,
      15.9544867
     ],
     [
      107.9508823,
      15.951777
     ],
     [
      107.9492247,
      15.9491722
     ],
     [
      107.9516431,
      15.9474589
     ],
     [
      107.9549163,
      15.9430445
     ],
     [
      107.9575396,
      15.9415126
     ],
     [
      107.9625606,
      15.935039
     ],
     [
      107.983439,
      15.9194656
     ],
     [
      107.9870814,
      15.9187588
     ],
     [
      107.990402,
      15.9198061
     ],
     [
      107.9929554,
      15.9179902
     ],
     [
      107.995863,
      15.9212092
     ],
     [
      107.999897,
      15.9206314
     ],
     [
      108.0032551,
      15.9219108
     ],
     [
      108.0056477,
      15.9215084
     ],
     [
      108.011055,
      15.9246861
     ],
     [
      108.0128146,
      15.9266181
     ],
     [
      108.0156649,
      15.9271526
     ],
     [
      108.0164355,
      15.9284209
     ],
     [
      108.0184761,
      15.9286814
     ],
     [
      108.0198475,
      15.9300083
     ],
     [
      108.0252171,
      15.9292013
     ],
     [
      108.0341665,
      15.9332481
     ],
     [
      108.041218,
      15.9349675
     ],
     [
      108.0443197,
      15.9325966
     ],
     [
      108.0512138,
      15.9323232
     ],
     [
      108.0546301,
      15.9332156
     ],
     [
      108.0570495,
      15.9325605
     ],
     [
      108.0575262,
      15.933453
     ],
     [
      108.0605525,
      15.9339352
     ],
     [
      108.062017,
      15.9294912
     ],
     [
      108.0667269,
      15.9280881
     ],
     [
      108.0682442,
      15.9266156
     ],
     [
      108.0793387,
      15.925576
     ],
     [
      108.0830515,
      15.9272176
     ],
     [
      108.0852771,
      15.9270977
     ],
     [
      108.0865431,
      15.9281294
     ],
     [
      108.08797,
      15.9301102
     ],
     [
      108.0882355,
      15.9367774
     ],
     [
      108.0977735,
      15.9411412
     ],
     [
      108.1036958,
      15.9426267
     ],
     [
      108.1045541,
      15.9444733
     ],
     [
      108.1093463,
      15.9479404
     ],
     [
      108.1233618,
      15.9393565
     ],
     [
      108.1268916,
      15.9354272
     ],
     [
      108.1376304,
      15.9305539
     ],
     [
      108.1380388,
      15.9312438
     ],
     [
      108.1413849,
      15.9313231
     ],
     [
      108.1453291,
      15.9333523
     ],
     [
      108.146866,
      15.9323735
     ],
     [
      108.1488499,
      15.937209
     ],
     [
      108.1502509,
      15.9485337
     ],
     [
      108.151424,
      15.9506553
     ],
     [
      108.1540006,
      15.9528601
     ],
     [
      108.1614817,
      15.9501068
     ],
     [
      108.1649762,
      15.9519343
     ],
     [
      108.1657621,
      15.9466526
     ],
     [
      108.1669729,
      15.946528
     ],
     [
      108.167586,
      15.9437228
     ],
     [
      108.1690586,
      15.9417473
     ],
     [
      108.1715476,
      15.9401998
     ],
     [
      108.1733578,
      15.9412911
     ],
     [
      108.1734849,
      15.9401051
     ],
     [
      108.1743036,
      15.9401518
     ],
     [
      108.1743747,
      15.9409129
     ],
     [
      108.1763558,
      15.939287
     ],
     [
      108.1796888,
      15.9396711
     ],
     [
      108.1822539,
      15.9441799
     ],
     [
      108.1802143,
      15.9491134
     ],
     [
      108.1811634,
      15.9495023
     ],
     [
      108.1804204,
      15.9515036
     ],
     [
      108.180415,
      15.9558104
     ],
     [
      108.1826466,
      15.9569812
     ],
     [
      108.1838858,
      15.9593795
     ],
     [
      108.1832139,
      15.9653391
     ],
     [
      108.186447,
      15.9655415
     ],
     [
      108.1862274,
      15.9644391
     ],
     [
      108.1873056,
      15.9641064
     ],
     [
      108.1862153,
      15.9631175
     ],
     [
      108.1864467,
      15.9622033
     ],
     [
      108.1905363,
      15.9620486
     ],
     [
      108.1900822,
      15.9609287
     ],
     [
      108.1910295,
      15.96095
     ],
     [
      108.1914168,
      15.9627629
     ],
     [
      108.1921417,
      15.9624779
     ],
     [
      108.1932152,
      15.9633908
     ],
     [
      108.1951327,
      15.9629289
     ],
     [
      108.1952074,
      15.9641844
     ],
     [
      108.1973639,
      15.9644829
     ],
     [
      108.1979547,
      15.963006
     ],
     [
      108.2028785,
      15.9638666
     ],
     [
      108.2047641,
      15.9605438
     ],
     [
      108.2034672,
      15.9571468
     ],
     [
      108.2053515,
      15.9556814
     ],
     [
      108.2054803,
      15.9547143
     ],
     [
      108.2045898,
      15.9529891
     ],
     [
      108.2045663,
      15.9514307
     ],
     [
      108.2056023,
      15.9511064
     ],
     [
      108.2046702,
      15.9486539
     ],
     [
      108.2059979,
      15.9468357
     ],
     [
      108.2095358,
      15.9451774
     ],
     [
      108.2105094,
      15.9427118
     ],
     [
      108.2146776,
      15.9448976
     ],
     [
      108.214581,
      15.945649
     ],
     [
      108.2164438,
      15.9461316
     ],
     [
      108.2161193,
      15.9493218
     ],
     [
      108.217793,
      15.9494475
     ],
     [
      108.2178386,
      15.9472664
     ],
     [
      108.2197215,
      15.9459214
     ],
     [
      108.222574,
      15.9471613
     ],
     [
      108.2218754,
      15.9503445
     ],
     [
      108.2244456,
      15.9561285
     ],
     [
      108.2306419,
      15.9573073
     ],
     [
      108.2310169,
      15.958551
     ],
     [
      108.230012,
      15.9609043
     ],
     [
      108.2312898,
      15.962398
     ],
     [
      108.2388765,
      15.9649407
     ],
     [
      108.2394907,
      15.9665176
     ],
     [
      108.2440883,
      15.9704156
     ],
     [
      108.2463598,
      15.9707467
     ],
     [
      108.2462427,
      15.9719639
     ],
     [
      108.2480577,
      15.9714764
     ],
     [
      108.2547425,
      15.973324
     ],
     [
      108.2547283,
      15.9725878
     ],
     [
      108.2581455,
      15.971695
     ],
     [
      108.2581481,
      15.9702314
     ],
     [
      108.2593419,
      15.9702009
     ],
     [
      108.2598106,
      15.9660367
     ],
     [
      108.263148,
      15.9650262
     ],
     [
      108.2682118,
      15.966484
     ],
     [
      108.2687229,
      15.9633105
     ],
     [
      108.2722628,
      15.961901
     ],
     [
      108.2787427,
      15.961512
     ],
     [
      108.2895709,
      15.9674041
     ],
     [
      108.2811905,
      15.9816695
     ],
     [
      108.269954,
      16.0038935
     ],
     [
      108.2558082,
      16.0340215
     ],
     [
      108.2496942,
      16.0504905
     ],
     [
      108.2477751,
      16.0577417
     ],
     [
      108.2468918,
      16.0675965
     ],
     [
      108.2473528,
      16.0763139
     ],
     [
      108.2494787,
      16.0869294
     ],
     [
      108.2537013,
      16.0969023
     ],
     [
      108.2558006,
      16.0994467
     ],
     [
      108.2587984,
      16.1013331
     ],
     [
      108.2618515,
      16.1020152
     ],
     [
      108.2644034,
      16.1010532
     ],
     [
      108.2642548,
      16.0998558
     ],
     [
      108.2654072,
      16.098099
     ],
     [
      108.26784,
      16.0958973
     ],
     [
      108.2674419,
      16.0949796
     ],
     [
      108.2693116,
      16.0953854
     ],
     [
      108.2701,
      16.097796
     ],
     [
      108.2730077,
      16.0987568
     ],
     [
      108.2760482,
      16.0972539
     ],
     [
      108.2779579,
      16.0977688
     ],
     [
      108.2801636,
      16.0972733
     ],
     [
      108.2866041,
      16.1039675
     ],
     [
      108.2918199,
      16.1056358
     ],
     [
      108.2952751,
      16.1056396
     ],
     [
      108.2999608,
      16.1037424
     ],
     [
      108.3010669,
      16.1006474
     ],
     [
      108.3007243,
      16.0992027
     ],
     [
      108.3031129,
      16.09673
     ],
     [
      108.3068008,
      16.0958891
     ],
     [
      108.3101303,
      16.0984583
     ],
     [
      108.3092108,
      16.1061007
     ],
     [
      108.3095422,
      16.1088734
     ],
     [
      108.3115992,
      16.1125284
     ],
     [
      108.3161331,
      16.1127621
     ],
     [
      108.3206973,
      16.1166557
     ],
     [
      108.3263481,
      16.1154321
     ],
     [
      108.3294832,
      16.1161499
     ],
     [
      108.3321514,
      16.1184505
     ],
     [
      108.3386414,
      16.117875
     ],
     [
      108.3376305,
      16.1192731
     ],
     [
      108.3380115,
      16.1211222
     ],
     [
      108.3361301,
      16.122125
     ],
     [
      108.3310969,
      16.1278035
     ],
     [
      108.3290558,
      16.1329378
     ],
     [
      108.3240621,
      16.140665
     ],
     [
      108.3215397,
      16.1419185
     ],
     [
      108.3205978,
      16.143294
     ],
     [
      108.3184383,
      16.1432883
     ],
     [
      108.3175388,
      16.1444641
     ],
     [
      108.3162427,
      16.1446459
     ],
     [
      108.31278,
      16.1417571
     ],
     [
      108.3121394,
      16.1389315
     ],
     [
      108.3127083,
      16.1356351
     ],
     [
      108.309847,
      16.1317969
     ],
     [
      108.3105308,
      16.1252743
     ],
     [
      108.3080951,
      16.123685
     ],
     [
      108.3053127,
      16.12309
     ],
     [
      108.2999294,
      16.1251159
     ],
     [
      108.2929686,
      16.1340061
     ],
     [
      108.2869415,
      16.1371431
     ],
     [
      108.2817087,
      16.1373871
     ],
     [
      108.2777842,
      16.1358684
     ],
     [
      108.2750712,
      16.1332085
     ],
     [
      108.2712848,
      16.1348471
     ],
     [
      108.2690915,
      16.1386635
     ],
     [
      108.2696555,
      16.1401022
     ],
     [
      108.2681327,
      16.1400902
     ],
     [
      108.2626554,
      16.145425
     ],
     [
      108.2605789,
      16.1509277
     ],
     [
      108.2590208,
      16.1527462
     ],
     [
      108.2491295,
      16.1556476
     ],
     [
      108.2459415,
      16.1550915
     ],
     [
      108.2417292,
      16.1515627
     ],
     [
      108.2420099,
      16.1505366
     ],
     [
      108.2404264,
      16.1494866
     ],
     [
      108.2377513,
      16.1503524
     ],
     [
      108.2372384,
      16.1489305
     ],
     [
      108.2341557,
      16.1472567
     ],
     [
      108.2324314,
      16.1498976
     ],
     [
      108.2301749,
      16.1493535
     ],
     [
      108.2317669,
      16.1462836
     ],
     [
      108.2312491,
      16.1439148
     ],
     [
      108.2319341,
      16.1427985
     ],
     [
      108.2295222,
      16.1410491
     ],
     [
      108.2296251,
      16.1376642
     ],
     [
      108.2276097,
      16.1344588
     ],
     [
      108.2247996,
      16.1348542
     ],
     [
      108.2233635,
      16.1317621
     ],
     [
      108.2217733,
      16.1312267
     ],
     [
      108.2217912,
      16.12994
     ],
     [
      108.2207336,
      16.1294114
     ],
     [
      108.2214092,
      16.1253608
     ],
     [
      108.2205994,
      16.1241474
     ],
     [
      108.2188185,
      16.1234563
     ],
     [
      108.2152873,
      16.1250177
     ],
     [
      108.2133627,
      16.1227981
     ],
     [
      108.2090291,
      16.1226704
     ],
     [
      108.2129702,
      16.1225301
     ],
     [
      108.2104873,
      16.1221334
     ],
     [
      108.2123218,
      16.1199367
     ],
     [
      108.2138924,
      16.1210704
     ],
     [
      108.2144868,
      16.1203465
     ],
     [
      108.2129684,
      16.1191277
     ],
     [
      108.2146673,
      16.1201258
     ],
     [
      108.2151943,
      16.1194812
     ],
     [
      108.2138652,
      16.1184123
     ],
     [
      108.2153602,
      16.1192782
     ],
     [
      108.2153836,
      16.1183049
     ],
     [
      108.2175299,
      16.115962
     ],
     [
      108.2184548,
      16.1157404
     ],
     [
      108.2187582,
      16.1176466
     ],
     [
      108.2201125,
      16.1182024
     ],
     [
      108.2186735,
      16.1178439
     ],
     [
      108.2189688,
      16.1191836
     ],
     [
      108.2216112,
      16.1209091
     ],
     [
      108.2225504,
      16.1193811
     ],
     [
      108.2212465,
      16.1190384
     ],
     [
      108.2225804,
      16.1192405
     ],
     [
      108.2259405,
      16.1163882
     ],
     [
      108.2283572,
      16.1159392
     ],
     [
      108.2286944,
      16.1167301
     ],
     [
      108.229567,
      16.1161649
     ],
     [
      108.2291488,
      16.1154856
     ],
     [
      108.2318686,
      16.1145978
     ],
     [
      108.2347422,
      16.1122805
     ],
     [
      108.2417247,
      16.1123822
     ],
     [
      108.2415221,
      16.1107973
     ],
     [
      108.2395757,
      16.1098625
     ],
     [
      108.2408435,
      16.1101137
     ],
     [
      108.2417275,
      16.1071902
     ],
     [
      108.2406608,
      16.1068843
     ],
     [
      108.2418092,
      16.10692
     ],
     [
      108.2425213,
      16.1043222
     ],
     [
      108.2393896,
      16.0988628
     ],
     [
      108.237476,
      16.0932255
     ],
     [
      108.2368779,
      16.0926611
     ],
     [
      108.2346597,
      16.0946558
     ],
     [
      108.2360116,
      16.0978411
     ],
     [
      108.2339561,
      16.1038424
     ],
     [
      108.2264332,
      16.1001484
     ],
     [
      108.2265729,
      16.1010555
     ],
     [
      108.2287139,
      16.1015858
     ],
     [
      108.2275621,
      16.1091433
     ],
     [
      108.2252836,
      16.1090575
     ],
     [
      108.2149991,
      16.0961727
     ],
     [
      108.2100685,
      16.0982392
     ],
     [
      108.2041422,
      16.097898
     ],
     [
      108.2100283,
      16.0980412
     ],
     [
      108.2147603,
      16.0960807
     ],
     [
      108.2131231,
      16.0915669
     ],
     [
      108.2106184,
      16.089622
     ],
     [
      108.2072511,
      16.0889945
     ],
     [
      108.2047276,
      16.092864
     ],
     [
      108.2010767,
      16.0944295
     ],
     [
      108.2052976,
      16.0920062
     ],
     [
      108.2075553,
      16.0863245
     ],
     [
      108.2056965,
      16.0797638
     ],
     [
      108.2014068,
      16.074192
     ],
     [
      108.1946447,
      16.0731689
     ],
     [
      108.1842622,
      16.0746895
     ],
     [
      108.1739816,
      16.0781674
     ],
     [
      108.1641868,
      16.0830919
     ],
     [
      108.1514418,
      16.0916966
     ],
     [
      108.1423974,
      16.0998453
     ],
     [
      108.1315738,
      16.1130775
     ],
     [
      108.1314437,
      16.1164409
     ],
     [
      108.1320835,
      16.1174472
     ],
     [
      108.1342802,
      16.117598
     ],
     [
      108.1326334,
      16.1187457
     ],
     [
      108.1308417,
      16.1185935
     ],
     [
      108.1260831,
      16.1236887
     ],
     [
      108.1235747,
      16.1307103
     ],
     [
      108.1241831,
      16.1313246
     ],
     [
      108.1232659,
      16.1349892
     ],
     [
      108.1245349,
      16.1400972
     ],
     [
      108.1262087,
      16.142419
     ],
     [
      108.1261713,
      16.1411418
     ],
     [
      108.1289824,
      16.139894
     ],
     [
      108.1342215,
      16.1400461
     ],
     [
      108.1385012,
      16.1418299
     ],
     [
      108.1395958,
      16.1437195
     ],
     [
      108.1395994,
      16.1462941
     ],
     [
      108.1369618,
      16.1517407
     ],
     [
      108.1367329,
      16.1576851
     ],
     [
      108.1370596,
      16.1594801
     ],
     [
      108.1396976,
      16.1633427
     ],
     [
      108.1420101,
      16.1646499
     ],
     [
      108.145136,
      16.1648309
     ],
     [
      108.1468241,
      16.1641204
     ],
     [
      108.1467987,
      16.1625247
     ],
     [
      108.1485731,
      16.1608898
     ],
     [
      108.1533063,
      16.1614661
     ],
     [
      108.1539245,
      16.1648203
     ],
     [
      108.1518286,
      16.1652959
     ],
     [
      108.1509162,
      16.1678524
     ],
     [
      108.1539451,
      16.1721646
     ],
     [
      108.1526434,
      16.175358
     ],
     [
      108.1535845,
      16.1792289
     ],
     [
      108.1526823,
      16.1808552
     ],
     [
      108.152811,
      16.1825566
     ],
     [
      108.1536184,
      16.1861784
     ],
     [
      108.1542801,
      16.1864447
     ],
     [
      108.1538012,
      16.1872251
     ],
     [
      108.1558733,
      16.1904504
     ],
     [
      108.1620682,
      16.19131
     ],
     [
      108.1646864,
      16.1940919
     ],
     [
      108.1665322,
      16.1931599
     ],
     [
      108.1682359,
      16.19404
     ],
     [
      108.1742778,
      16.1943039
     ],
     [
      108.1756002,
      16.1949654
     ],
     [
      108.1758261,
      16.1977995
     ],
     [
      108.1787208,
      16.2002828
     ],
     [
      108.1843282,
      16.1993276
     ],
     [
      108.187232,
      16.2011678
     ],
     [
      108.1909642,
      16.2009598
     ],
     [
      108.1928504,
      16.1994404
     ],
     [
      108.1944482,
      16.1994616
     ],
     [
      108.1948309,
      16.2006252
     ],
     [
      108.1936111,
      16.2021535
     ],
     [
      108.193441,
      16.204725
     ],
     [
      108.19437,
      16.2049947
     ],
     [
      108.1935491,
      16.2065283
     ],
     [
      108.1947217,
      16.2083453
     ],
     [
      108.1947857,
      16.21023
     ],
     [
      108.1898708,
      16.208218
     ],
     [
      108.1770121,
      16.2059582
     ],
     [
      108.1743338,
      16.2036806
     ],
     [
      108.1724674,
      16.2033927
     ],
     [
      108.1711552,
      16.2012949
     ],
     [
      108.1689089,
      16.2033676
     ],
     [
      108.1649445,
      16.2041302
     ],
     [
      108.160826,
      16.2063911
     ],
     [
      108.1576176,
      16.2059517
     ],
     [
      108.1561747,
      16.2042199
     ],
     [
      108.1556832,
      16.200397
     ],
     [
      108.1510802,
      16.2014549
     ],
     [
      108.1474215,
      16.1996851
     ],
     [
      108.1442827,
      16.1994588
     ],
     [
      108.1400648,
      16.1942992
     ],
     [
      108.137078,
      16.1928041
     ],
     [
      108.1359682,
      16.1909998
     ],
     [
      108.130727,
      16.1874116
     ],
     [
      108.1281116,
      16.1845569
     ],
     [
      108.1191613,
      16.1811288
     ],
     [
      108.1160979,
      16.1828323
     ],
     [
      108.1110885,
      16.1821333
     ],
     [
      108.1076149,
      16.1851716
     ],
     [
      108.1051197,
      16.1862428
     ],
     [
      108.1033958,
      16.1857654
     ],
     [
      108.1007213,
      16.1866743
     ],
     [
      108.0979521,
      16.1857461
     ],
     [
      108.0948213,
      16.1834853
     ],
     [
      108.0937482,
      16.1808037
     ],
     [
      108.09246,
      16.1801517
     ],
     [
      108.0858047,
      16.1825213
     ],
     [
      108.0785214,
      16.1825234
     ],
     [
      108.0754064,
      16.1833507
     ],
     [
      108.0736953,
      16.182174
     ],
     [
      108.0705317,
      16.1822351
     ],
     [
      108.0641413,
      16.1840545
     ],
     [
      108.0616507,
      16.1803585
     ],
     [
      108.0588251,
      16.1790417
     ],
     [
      108.036899,
      16.1911744
     ],
     [
      108.0332869,
      16.1905809
     ],
     [
      108.0282265,
      16.1930803
     ],
     [
      108.0246604,
      16.1928856
     ],
     [
      108.0186443,
      16.1942391
     ],
     [
      108.0150993,
      16.1938661
     ],
     [
      108.0098426,
      16.1987057
     ],
     [
      108.0054438,
      16.2052789
     ],
     [
      108.0036199,
      16.2049286
     ],
     [
      107.995255,
      16.209824
     ],
     [
      107.9938229,
      16.2096119
     ],
     [
      107.9882723,
      16.2141698
     ],
     [
      107.9826987,
      16.2097604
     ],
     [
      107.9820174,
      16.2083387
     ],
     [
      107.9807782,
      16.2081069
     ],
     [
      107.9792983,
      16.2059104
     ],
     [
      107.9792041,
      16.2032155
     ],
     [
      107.9756918,
      16.2001133
     ],
     [
      107.972061,
      16.199056
     ],
     [
      107.9695363,
      16.1940177
     ],
     [
      107.9617506,
      16.1920087
     ],
     [
      107.9559906,
      16.1890938
     ],
     [
      107.9510164,
      16.1900305
     ],
     [
      107.9435706,
      16.1946361
     ],
     [
      107.9344404,
      16.1952955
     ],
     [
      107.9319298,
      16.1971758
     ],
     [
      107.9295554,
      16.1975263
     ],
     [
      107.9278283,
      16.2005763
     ],
     [
      107.9243123,
      16.2021057
     ],
     [
      107.9211969,
      16.2062205
     ],
     [
      107.9180038,
      16.2081327
     ],
     [
      107.9135245,
      16.2144119
     ],
     [
      107.9100849,
      16.2154467
     ],
     [
      107.9083372,
      16.214094
     ],
     [
      107.9054296,
      16.2142213
     ],
     [
      107.9035883,
      16.2104104
     ],
     [
      107.8987187,
      16.2080915
     ],
     [
      107.8948295,
      16.2051553
     ],
     [
      107.8900981,
      16.2063297
     ],
     [
      107.8898711,
      16.2037598
     ],
     [
      107.8870064,
      16.1996755
     ],
     [
      107.883012,
      16.2000092
     ],
     [
      107.8784466,
      16.1983658
     ],
     [
      107.8776097,
      16.1971294
     ],
     [
      107.8757023,
      16.1969082
     ],
     [
      107.874788,
      16.1958879
     ],
     [
      107.8772951,
      16.1889348
     ],
     [
      107.8674066,
      16.1829108
     ],
     [
      107.8679768,
      16.1813042
     ],
     [
      107.8722453,
      16.1778258
     ],
     [
      107.8761371,
      16.1700109
     ],
     [
      107.8749479,
      16.1607756
     ],
     [
      107.8731573,
      16.1576444
     ],
     [
      107.8656632,
      16.1573765
     ],
     [
      107.8631151,
      16.1551815
     ],
     [
      107.8600895,
      16.154759
     ],
     [
      107.858567,
      16.1530415
     ],
     [
      107.8602934,
      16.147468
     ],
     [
      107.858845,
      16.1450358
     ],
     [
      107.8571498,
      16.1379247
     ],
     [
      107.8594307,
      16.13662
     ],
     [
      107.8601861,
      16.1350648
     ],
     [
      107.8585698,
      16.1325826
     ],
     [
      107.8576112,
      16.1288913
     ],
     [
      107.8559375,
      16.1277163
     ],
     [
      107.8542828,
      16.1231274
     ],
     [
      107.8558838,
      16.1203882
     ],
     [
      107.8560676,
      16.1143048
     ],
     [
      107.8497825,
      16.1098725
     ],
     [
      107.848455,
      16.1077569
     ],
     [
      107.8457558,
      16.105762
     ],
     [
      107.8454712,
      16.1045917
     ],
     [
      107.8416467,
      16.1036592
     ],
     [
      107.8372908,
      16.1012781
     ],
     [
      107.8327768,
      16.096523
     ],
     [
      107.8323689,
      16.0930187
     ],
     [
      107.8292093,
      16.0918229
     ],
     [
      107.826847,
      16.0898357
     ],
     [
      107.8255883,
      16.0848517
     ],
     [
      107.8224689,
      16.083045
     ],
     [
      107.8216653,
      16.0779337
     ],
     [
      107.8244698,
      16.0730245
     ],
     [
      107.8249543,
      16.0702657
     ],
     [
      107.8199422,
      16.0649572
     ],
     [
      107.820197,
      16.0622045
     ],
     [
      107.8185394,
      16.0582918
     ]
    ]
   ],
   [
    [
     [
      108.1982443,
      16.214153
     ],
     [
      108.200484,
      16.2116802
     ],
     [
      108.2029899,
      16.2121592
     ],
     [
      108.206664,
      16.2099063
     ],
     [
      108.2075255,
      16.2101359
     ],
     [
      108.2083522,
      16.2111735
     ],
     [
      108.2078479,
      16.2128881
     ],
     [
      108.2093297,
      16.2144577
     ],
     [
      108.2105656,
      16.2191327
     ],
     [
      108.2093938,
      16.2227548
     ],
     [
      108.205572,
      16.2254839
     ],
     [
      108.2032478,
      16.2254954
     ],
     [
      108.1995876,
      16.2200662
     ],
     [
      108.19995,
      16.2182642
     ],
     [
      108.1982443,
      16.214153
     ]
    ]
   ],
   [
    [
     [
      108.2063163,
      16.094756
     ],
     [
      108.2070675,
      16.0940929
     ],
     [
      108.2071855,
      16.0961768
     ],
     [
      108.2097887,
      16.0968331
     ],
     [
      108.2071676,
      16.0977423
     ],
     [
      108.2063163,
      16.094756
     ]
    ]
   ],
   [
    [
     [
      108.2347491,
      16.102646
     ],
     [
      108.2349881,
      16.1020835
     ],
     [
      108.2400478,
      16.1037574
     ],
     [
      108.2374568,
      16.1072225
     ],
     [
      108.2361186,
      16.1048457
     ],
     [
      108.2367867,
      16.1045735
     ],
     [
      108.2372392,
      16.1060123
     ],
     [
      108.238847,
      16.1040518
     ],
     [
      108.2347491,
      16.102646
     ]
    ]
   ]
  ]
 }
}
