{
 "type": "Feature",
 "properties": {
  "code": "TPHCM",
  "name": "Ho Chi Minh",
  "basis": "pre-2025-merger extent, unioned from OSM boundary/historic relations",
  "parts": 22,
  "missingParts": 1,
  "areaKm2": 1629.4,
  "bbox": [
   106.46356,
   10.35828,
   107.02758,
   10.92934
  ],
  "center": [
   10.66748,
   106.76447
  ],
  "generatedAt": "2026-08-30T04:02:54.367Z"
 },
 "geometry": {
  "type": "MultiPolygon",
  "coordinates": [
   [
    [
     [
      106.4635618,
      10.7565046
     ],
     [
      106.4722331,
      10.7455255
     ],
     [
      106.4735079,
      10.7464922
     ],
     [
      106.4871569,
      10.7298149
     ],
     [
      106.4889865,
      10.7312615
     ],
     [
      106.4996255,
      10.7249923
     ],
     [
      106.5016856,
      10.7265365
     ],
     [
      106.5093718,
      10.7170518
     ],
     [
      106.5202276,
      10.7236952
     ],
     [
      106.5302547,
      10.7172794
     ],
     [
      106.5284362,
      10.7149779
     ],
     [
      106.5272397,
      10.7091259
     ],
     [
      106.5338586,
      10.6881685
     ],
     [
      106.535663,
      10.6855532
     ],
     [
      106.5476422,
      10.6871709
     ],
     [
      106.5481494,
      10.6862394
     ],
     [
      106.5504213,
      10.6856057
     ],
     [
      106.5515685,
      10.6794588
     ],
     [
      106.5536211,
      10.675406
     ],
     [
      106.5532335,
      10.6720611
     ],
     [
      106.5520597,
      10.6705916
     ],
     [
      106.5535808,
      10.6685847
     ],
     [
      106.553235,
      10.6656959
     ],
     [
      106.551519,
      10.6641393
     ],
     [
      106.5504895,
      10.6590349
     ],
     [
      106.5492686,
      10.659657
     ],
     [
      106.5489702,
      10.6574327
     ],
     [
      106.5559217,
      10.6569738
     ],
     [
      106.5552058,
      10.652581
     ],
     [
      106.5556683,
      10.6509266
     ],
     [
      106.5572657,
      10.6505125
     ],
     [
      106.5579277,
      10.648603
     ],
     [
      106.55918,
      10.6499646
     ],
     [
      106.5590288,
      10.6518814
     ],
     [
      106.5630729,
      10.6514923
     ],
     [
      106.5631335,
      10.6522051
     ],
     [
      106.5652959,
      10.6523024
     ],
     [
      106.5662728,
      10.6564275
     ],
     [
      106.5685221,
      10.6560476
     ],
     [
      106.5686163,
      10.656583
     ],
     [
      106.5734877,
      10.6541309
     ],
     [
      106.5733555,
      10.6498562
     ],
     [
      106.5751194,
      10.6498703
     ],
     [
      106.5754631,
      10.6491116
     ],
     [
      106.5789715,
      10.6496043
     ],
     [
      106.5795486,
      10.6519005
     ],
     [
      106.5780058,
      10.651892
     ],
     [
      106.5779066,
      10.6532379
     ],
     [
      106.5798284,
      10.6560951
     ],
     [
      106.5831997,
      10.6553672
     ],
     [
      106.5841286,
      10.6536567
     ],
     [
      106.586855,
      10.6532116
     ],
     [
      106.5869821,
      10.6524906
     ],
     [
      106.5905312,
      10.6527818
     ],
     [
      106.591663,
      10.6501114
     ],
     [
      106.5959254,
      10.6503934
     ],
     [
      106.5952297,
      10.6534997
     ],
     [
      106.5996118,
      10.6525942
     ],
     [
      106.6006523,
      10.6506916
     ],
     [
      106.6017542,
      10.6512846
     ],
     [
      106.6053836,
      10.6586959
     ],
     [
      106.6108327,
      10.6568916
     ],
     [
      106.6141904,
      10.6538525
     ],
     [
      106.6156273,
      10.6541118
     ],
     [
      106.6167353,
      10.6533377
     ],
     [
      106.6167909,
      10.6521968
     ],
     [
      106.6177159,
      10.6519567
     ],
     [
      106.6173422,
      10.6501711
     ],
     [
      106.618984,
      10.6496845
     ],
     [
      106.6189639,
      10.6490133
     ],
     [
      106.6245614,
      10.6474547
     ],
     [
      106.6238926,
      10.6460911
     ],
     [
      106.6243293,
      10.6444613
     ],
     [
      106.6217719,
      10.6441002
     ],
     [
      106.6215383,
      10.6432687
     ],
     [
      106.6225062,
      10.6425918
     ],
     [
      106.6212058,
      10.6409296
     ],
     [
      106.6241101,
      10.6394356
     ],
     [
      106.625805,
      10.6397168
     ],
     [
      106.6271793,
      10.6423959
     ],
     [
      106.629483,
      10.64203
     ],
     [
      106.6296754,
      10.6393398
     ],
     [
      106.6305332,
      10.6390601
     ],
     [
      106.6311629,
      10.636743
     ],
     [
      106.6295121,
      10.6363135
     ],
     [
      106.6296305,
      10.6316508
     ],
     [
      106.630766,
      10.6302011
     ],
     [
      106.6295621,
      10.6275909
     ],
     [
      106.6301368,
      10.6264266
     ],
     [
      106.6316328,
      10.628275
     ],
     [
      106.6328824,
      10.6279942
     ],
     [
      106.6349407,
      10.6253147
     ],
     [
      106.6353235,
      10.6261223
     ],
     [
      106.6373021,
      10.6262847
     ],
     [
      106.6388936,
      10.6274694
     ],
     [
      106.6410251,
      10.6266209
     ],
     [
      106.6437827,
      10.6296189
     ],
     [
      106.6461988,
      10.6342395
     ],
     [
      106.6484757,
      10.6327058
     ],
     [
      106.6528386,
      10.6322999
     ],
     [
      106.6534867,
      10.6333058
     ],
     [
      106.6529438,
      10.6378948
     ],
     [
      106.6539451,
      10.6394395
     ],
     [
      106.6565033,
      10.638811
     ],
     [
      106.6562901,
      10.6420446
     ],
     [
      106.6569372,
      10.6433228
     ],
     [
      106.6607203,
      10.6419874
     ],
     [
      106.6601906,
      10.6398143
     ],
     [
      106.6626216,
      10.6392726
     ],
     [
      106.6633378,
      10.6400752
     ],
     [
      106.6649995,
      10.6388865
     ],
     [
      106.6656054,
      10.6396021
     ],
     [
      106.6660405,
      10.6384323
     ],
     [
      106.6666233,
      10.6406516
     ],
     [
      106.6681229,
      10.639284
     ],
     [
      106.6697641,
      10.6393346
     ],
     [
      106.6718103,
      10.6415075
     ],
     [
      106.6734454,
      10.6419688
     ],
     [
      106.6741834,
      10.6442992
     ],
     [
      106.6787428,
      10.6455231
     ],
     [
      106.6847885,
      10.650217
     ],
     [
      106.6860523,
      10.6527741
     ],
     [
      106.6857032,
      10.6566582
     ],
     [
      106.6872126,
      10.6558707
     ],
     [
      106.6912555,
      10.6486175
     ],
     [
      106.6962707,
      10.6498628
     ],
     [
      106.6976775,
      10.6520799
     ],
     [
      106.7009535,
      10.6538464
     ],
     [
      106.7039785,
      10.6528129
     ],
     [
      106.7068657,
      10.6501768
     ],
     [
      106.7117476,
      10.6504673
     ],
     [
      106.7186937,
      10.6457417
     ],
     [
      106.7216401,
      10.6458753
     ],
     [
      106.722928,
      10.6451945
     ],
     [
      106.7237035,
      10.6412777
     ],
     [
      106.7261317,
      10.6379676
     ],
     [
      106.7307295,
      10.6353735
     ],
     [
      106.7332404,
      10.6288844
     ],
     [
      106.7319335,
      10.627753
     ],
     [
      106.729767,
      10.6287315
     ],
     [
      106.7290657,
      10.6282855
     ],
     [
      106.7283726,
      10.6244284
     ],
     [
      106.731399,
      10.6237009
     ],
     [
      106.7317806,
      10.6227848
     ],
     [
      106.7298501,
      10.6202085
     ],
     [
      106.7292082,
      10.6165984
     ],
     [
      106.7278847,
      10.6168472
     ],
     [
      106.7275447,
      10.6161848
     ],
     [
      106.7291316,
      10.6120491
     ],
     [
      106.7316087,
      10.6121361
     ],
     [
      106.7327945,
      10.6099603
     ],
     [
      106.7312547,
      10.6088699
     ],
     [
      106.7283681,
      10.6090137
     ],
     [
      106.7264952,
      10.6113314
     ],
     [
      106.7236747,
      10.6117188
     ],
     [
      106.722,
      10.606911
     ],
     [
      106.7189372,
      10.6059224
     ],
     [
      106.7195144,
      10.6029732
     ],
     [
      106.7218323,
      10.5998061
     ],
     [
      106.7202879,
      10.5963776
     ],
     [
      106.72337,
      10.5934888
     ],
     [
      106.7232422,
      10.5883371
     ],
     [
      106.725134,
      10.5854276
     ],
     [
      106.7270246,
      10.5855519
     ],
     [
      106.7267166,
      10.5840995
     ],
     [
      106.7287025,
      10.5800465
     ],
     [
      106.7327542,
      10.5802693
     ],
     [
      106.734799,
      10.5823035
     ],
     [
      106.7352949,
      10.586141
     ],
     [
      106.736842,
      10.5863966
     ],
     [
      106.7388237,
      10.5851568
     ],
     [
      106.7395014,
      10.5827996
     ],
     [
      106.7386703,
      10.5811803
     ],
     [
      106.7350589,
      10.5787291
     ],
     [
      106.7355638,
      10.5774085
     ],
     [
      106.7367652,
      10.5770841
     ],
     [
      106.7380474,
      10.5784538
     ],
     [
      106.7412316,
      10.5790717
     ],
     [
      106.7456478,
      10.5763631
     ],
     [
      106.7425864,
      10.569343
     ],
     [
      106.7418966,
      10.5639214
     ],
     [
      106.747241,
      10.5280244
     ],
     [
      106.7452324,
      10.4978311
     ],
     [
      106.7536353,
      10.4673029
     ],
     [
      106.7562254,
      10.4609118
     ],
     [
      106.7611567,
      10.4537878
     ],
     [
      106.7714627,
      10.4409249
     ],
     [
      106.7925066,
      10.4184025
     ],
     [
      106.809233,
      10.3882046
     ],
     [
      106.8288959,
      10.3974942
     ],
     [
      106.831778,
      10.3959486
     ],
     [
      106.8371572,
      10.3968462
     ],
     [
      106.8439005,
      10.4014708
     ],
     [
      106.8519124,
      10.404835
     ],
     [
      106.8533409,
      10.4066198
     ],
     [
      106.8530949,
      10.4090148
     ],
     [
      106.854031,
      10.4100459
     ],
     [
      106.8723671,
      10.4099772
     ],
     [
      106.8779408,
      10.3965696
     ],
     [
      106.8795656,
      10.3958833
     ],
     [
      106.8789115,
      10.3940356
     ],
     [
      106.8814892,
      10.3885354
     ],
     [
      106.8799985,
      10.3846169
     ],
     [
      106.8802682,
      10.3826728
     ],
     [
      106.8750705,
      10.3778606
     ],
     [
      106.8796423,
      10.3764744
     ],
     [
      106.8809562,
      10.3767743
     ],
     [
      106.8811176,
      10.3729368
     ],
     [
      106.8870631,
      10.3677108
     ],
     [
      106.8881575,
      10.3678607
     ],
     [
      106.8992805,
      10.3620443
     ],
     [
      106.9070683,
      10.3596447
     ],
     [
      106.9151208,
      10.3583809
     ],
     [
      106.9232719,
      10.358277
     ],
     [
      106.9313526,
      10.3593346
     ],
     [
      106.9370878,
      10.3608216
     ],
     [
      106.9451637,
      10.3643178
     ],
     [
      106.9659443,
      10.375441
     ],
     [
      106.9700313,
      10.3761571
     ],
     [
      106.9778814,
      10.3755513
     ],
     [
      106.9823052,
      10.3736764
     ],
     [
      106.9866335,
      10.3697078
     ],
     [
      106.9878003,
      10.3664546
     ],
     [
      106.9912682,
      10.366565
     ],
     [
      106.9936287,
      10.3640827
     ],
     [
      106.9856036,
      10.3766731
     ],
     [
      106.9840801,
      10.375412
     ],
     [
      106.9795888,
      10.3775062
     ],
     [
      106.9740131,
      10.3787822
     ],
     [
      106.971901,
      10.381086
     ],
     [
      106.971825,
      10.3833168
     ],
     [
      106.9747776,
      10.3907536
     ],
     [
      106.9760871,
      10.3972409
     ],
     [
      106.9759266,
      10.4073485
     ],
     [
      106.975092,
      10.4116107
     ],
     [
      106.9738206,
      10.4120988
     ],
     [
      106.9747022,
      10.4121969
     ],
     [
      106.9740985,
      10.4128126
     ],
     [
      106.9747658,
      10.4145226
     ],
     [
      106.9755128,
      10.4142803
     ],
     [
      106.9747031,
      10.4149626
     ],
     [
      106.9755734,
      10.4159911
     ],
     [
      106.9732077,
      10.4166612
     ],
     [
      106.9734384,
      10.4174513
     ],
     [
      106.9729623,
      10.4170187
     ],
     [
      106.9716065,
      10.4182321
     ],
     [
      106.9718251,
      10.4175792
     ],
     [
      106.9699328,
      10.4180079
     ],
     [
      106.9706181,
      10.4174012
     ],
     [
      106.9698416,
      10.4166216
     ],
     [
      106.9680431,
      10.4173326
     ],
     [
      106.9672639,
      10.4158282
     ],
     [
      106.964991,
      10.4163565
     ],
     [
      106.9608501,
      10.4210455
     ],
     [
      106.9571265,
      10.4216761
     ],
     [
      106.9573244,
      10.4222914
     ],
     [
      106.9534731,
      10.4234115
     ],
     [
      106.9535553,
      10.4244016
     ],
     [
      106.9515609,
      10.4255979
     ],
     [
      106.9477646,
      10.4261662
     ],
     [
      106.947727,
      10.4274368
     ],
     [
      106.9464652,
      10.4279446
     ],
     [
      106.9452258,
      10.4306254
     ],
     [
      106.9437551,
      10.4308934
     ],
     [
      106.9438232,
      10.4326297
     ],
     [
      106.9425677,
      10.4329293
     ],
     [
      106.9412022,
      10.4349948
     ],
     [
      106.9381509,
      10.435943
     ],
     [
      106.931577,
      10.4465474
     ],
     [
      106.9326973,
      10.4499787
     ],
     [
      106.931887,
      10.4523149
     ],
     [
      106.9320684,
      10.4565572
     ],
     [
      106.9345163,
      10.4620507
     ],
     [
      106.9458402,
      10.4722317
     ],
     [
      106.9476288,
      10.4722747
     ],
     [
      106.9491428,
      10.4708928
     ],
     [
      106.9515631,
      10.470943
     ],
     [
      106.9530974,
      10.4689649
     ],
     [
      106.9538129,
      10.4688384
     ],
     [
      106.9541358,
      10.4699127
     ],
     [
      106.9563065,
      10.4696075
     ],
     [
      106.9582111,
      10.4672671
     ],
     [
      106.9600436,
      10.4670656
     ],
     [
      106.9623087,
      10.4648799
     ],
     [
      106.9647303,
      10.4649518
     ],
     [
      106.9663292,
      10.4639828
     ],
     [
      106.9673566,
      10.4715206
     ],
     [
      106.9685941,
      10.4726346
     ],
     [
      106.9691737,
      10.4758334
     ],
     [
      106.9721099,
      10.4810552
     ],
     [
      106.9770282,
      10.4858236
     ],
     [
      106.9767783,
      10.4874018
     ],
     [
      106.9752418,
      10.4884563
     ],
     [
      106.974312,
      10.4986621
     ],
     [
      106.9772574,
      10.505092
     ],
     [
      106.9825889,
      10.5107453
     ],
     [
      106.9915041,
      10.5153215
     ],
     [
      106.9970154,
      10.5149586
     ],
     [
      106.9999347,
      10.5068312
     ],
     [
      107.0058274,
      10.5098492
     ],
     [
      107.0076882,
      10.5114154
     ],
     [
      107.0105551,
      10.5158971
     ],
     [
      107.012328,
      10.5197312
     ],
     [
      107.0126188,
      10.5223388
     ],
     [
      107.026062,
      10.5357877
     ],
     [
      107.0275803,
      10.5394019
     ],
     [
      107.0267082,
      10.5444213
     ],
     [
      107.0254909,
      10.5454215
     ],
     [
      107.0172057,
      10.5476007
     ],
     [
      107.0134265,
      10.5494584
     ],
     [
      107.0122637,
      10.5508338
     ],
     [
      107.0113007,
      10.5546741
     ],
     [
      107.0112462,
      10.5568353
     ],
     [
      107.0132812,
      10.5621581
     ],
     [
      107.0206579,
      10.5719102
     ],
     [
      107.0269081,
      10.5829301
     ],
     [
      107.0268288,
      10.5884412
     ],
     [
      107.0223458,
      10.5959671
     ],
     [
      107.0191458,
      10.6038971
     ],
     [
      107.0140281,
      10.6091322
     ],
     [
      107.0082867,
      10.6130075
     ],
     [
      107.0064605,
      10.6099432
     ],
     [
      107.0022063,
      10.6108245
     ],
     [
      107.0024645,
      10.6087938
     ],
     [
      107.0005059,
      10.6070001
     ],
     [
      106.9981438,
      10.6077893
     ],
     [
      106.9959167,
      10.6054216
     ],
     [
      106.9907667,
      10.6051994
     ],
     [
      106.9901955,
      10.6041376
     ],
     [
      106.9905627,
      10.6005472
     ],
     [
      106.9862101,
      10.5957231
     ],
     [
      106.987199,
      10.587777
     ],
     [
      106.9837328,
      10.5792082
     ],
     [
      106.9796263,
      10.5819196
     ],
     [
      106.9749271,
      10.5823359
     ],
     [
      106.9687519,
      10.5893028
     ],
     [
      106.9636957,
      10.5912158
     ],
     [
      106.9605119,
      10.5935822
     ],
     [
      106.9553752,
      10.5942063
     ],
     [
      106.9466067,
      10.5973811
     ],
     [
      106.9413844,
      10.5967216
     ],
     [
      106.9378418,
      10.5999071
     ],
     [
      106.9352672,
      10.6001579
     ],
     [
      106.928168,
      10.6029951
     ],
     [
      106.9215029,
      10.6097301
     ],
     [
      106.9186148,
      10.6098086
     ],
     [
      106.9143498,
      10.6074468
     ],
     [
      106.9113714,
      10.6081568
     ],
     [
      106.9086321,
      10.6120876
     ],
     [
      106.9040689,
      10.6239935
     ],
     [
      106.8980046,
      10.6295321
     ],
     [
      106.8940187,
      10.6360531
     ],
     [
      106.8857519,
      10.6398031
     ],
     [
      106.8847786,
      10.641631
     ],
     [
      106.8842399,
      10.6459443
     ],
     [
      106.8819583,
      10.647984
     ],
     [
      106.8762938,
      10.6486011
     ],
     [
      106.8727386,
      10.6478356
     ],
     [
      106.8698679,
      10.6432381
     ],
     [
      106.8644423,
      10.6420007
     ],
     [
      106.8620687,
      10.6378256
     ],
     [
      106.8603392,
      10.6367029
     ],
     [
      106.8581226,
      10.6368689
     ],
     [
      106.8525253,
      10.6395013
     ],
     [
      106.8434381,
      10.6384115
     ],
     [
      106.8405928,
      10.6350522
     ],
     [
      106.8379655,
      10.6263197
     ],
     [
      106.8268184,
      10.6280053
     ],
     [
      106.82155,
      10.6312383
     ],
     [
      106.8148234,
      10.6393323
     ],
     [
      106.8127962,
      10.6429403
     ],
     [
      106.8099771,
      10.6529585
     ],
     [
      106.8077563,
      10.65632
     ],
     [
      106.7897686,
      10.6684614
     ],
     [
      106.7766777,
      10.6756785
     ],
     [
      106.7690807,
      10.681307
     ],
     [
      106.7576994,
      10.6929863
     ],
     [
      106.7545393,
      10.6977093
     ],
     [
      106.7524647,
      10.7028793
     ],
     [
      106.7511678,
      10.7103776
     ],
     [
      106.7528834,
      10.7219417
     ],
     [
      106.7686561,
      10.7431427
     ],
     [
      106.7726629,
      10.7466967
     ],
     [
      106.7773151,
      10.7493683
     ],
     [
      106.7968881,
      10.7577716
     ],
     [
      106.8013778,
      10.760408
     ],
     [
      106.8034011,
      10.7631931
     ],
     [
      106.8066849,
      10.7712239
     ],
     [
      106.8128045,
      10.7772928
     ],
     [
      106.8163172,
      10.7797015
     ],
     [
      106.8194156,
      10.7808846
     ],
     [
      106.8217297,
      10.7808709
     ],
     [
      106.8250649,
      10.7778482
     ],
     [
      106.8256022,
      10.7725292
     ],
     [
      106.8230167,
      10.7634726
     ],
     [
      106.8234613,
      10.7607717
     ],
     [
      106.8248281,
      10.7595803
     ],
     [
      106.8289198,
      10.7606319
     ],
     [
      106.8355853,
      10.7691959
     ],
     [
      106.8390248,
      10.771997
     ],
     [
      106.8426174,
      10.7741932
     ],
     [
      106.8465768,
      10.7754044
     ],
     [
      106.8512722,
      10.7751564
     ],
     [
      106.8536416,
      10.7741461
     ],
     [
      106.8609354,
      10.766716
     ],
     [
      106.8652882,
      10.764637
     ],
     [
      106.8694652,
      10.7648269
     ],
     [
      106.8726326,
      10.7669322
     ],
     [
      106.8738005,
      10.7687001
     ],
     [
      106.8741142,
      10.7711991
     ],
     [
      106.8733521,
      10.7736419
     ],
     [
      106.8713587,
      10.7772307
     ],
     [
      106.8649947,
      10.7844494
     ],
     [
      106.8642654,
      10.7884521
     ],
     [
      106.8657355,
      10.7912147
     ],
     [
      106.875679,
      10.7985086
     ],
     [
      106.8786841,
      10.8021248
     ],
     [
      106.8815567,
      10.8065311
     ],
     [
      106.8815533,
      10.8106588
     ],
     [
      106.8781227,
      10.81854
     ],
     [
      106.8569283,
      10.8426284
     ],
     [
      106.8520545,
      10.8515705
     ],
     [
      106.8468153,
      10.8648961
     ],
     [
      106.8513221,
      10.8753108
     ],
     [
      106.845235,
      10.8845157
     ],
     [
      106.8401265,
      10.8988461
     ],
     [
      106.8339199,
      10.8982586
     ],
     [
      106.8298537,
      10.8949756
     ],
     [
      106.8279449,
      10.8942913
     ],
     [
      106.8267285,
      10.8947951
     ],
     [
      106.8250931,
      10.8937553
     ],
     [
      106.8250914,
      10.8928682
     ],
     [
      106.8238948,
      10.8928774
     ],
     [
      106.8241281,
      10.8882349
     ],
     [
      106.8217842,
      10.8858868
     ],
     [
      106.8203743,
      10.8857419
     ],
     [
      106.8204082,
      10.886344
     ],
     [
      106.819402,
      10.8857514
     ],
     [
      106.8191082,
      10.884243
     ],
     [
      106.8174819,
      10.8835977
     ],
     [
      106.8171911,
      10.8810661
     ],
     [
      106.8162917,
      10.881227
     ],
     [
      106.8138254,
      10.8783947
     ],
     [
      106.8130632,
      10.8791098
     ],
     [
      106.8084835,
      10.8729171
     ],
     [
      106.8052969,
      10.8751165
     ],
     [
      106.8043491,
      10.8737027
     ],
     [
      106.8013329,
      10.8736321
     ],
     [
      106.7986664,
      10.8720074
     ],
     [
      106.7978258,
      10.8732082
     ],
     [
      106.795159,
      10.8735589
     ],
     [
      106.7921713,
      10.8725947
     ],
     [
      106.7921659,
      10.8719756
     ],
     [
      106.7889215,
      10.8719524
     ],
     [
      106.7877281,
      10.8672115
     ],
     [
      106.7803318,
      10.8682665
     ],
     [
      106.7821065,
      10.8771956
     ],
     [
      106.7806065,
      10.8811856
     ],
     [
      106.7695436,
      10.8939241
     ],
     [
      106.7684209,
      10.8940402
     ],
     [
      106.7684183,
      10.8922433
     ],
     [
      106.7672646,
      10.8925065
     ],
     [
      106.7676681,
      10.8916337
     ],
     [
      106.7668916,
      10.8915511
     ],
     [
      106.7645467,
      10.8848594
     ],
     [
      106.7605209,
      10.8812602
     ],
     [
      106.7619415,
      10.8787059
     ],
     [
      106.7614269,
      10.8785209
     ],
     [
      106.7618984,
      10.8755415
     ],
     [
      106.7603765,
      10.8723815
     ],
     [
      106.7632849,
      10.8699203
     ],
     [
      106.7630843,
      10.8687709
     ],
     [
      106.7622395,
      10.8672623
     ],
     [
      106.7546015,
      10.8662775
     ],
     [
      106.7517472,
      10.8634587
     ],
     [
      106.7487055,
      10.8656559
     ],
     [
      106.747918,
      10.8692233
     ],
     [
      106.7459858,
      10.8717248
     ],
     [
      106.7470408,
      10.872075
     ],
     [
      106.7464425,
      10.8738789
     ],
     [
      106.751339,
      10.8754629
     ],
     [
      106.7503719,
      10.8772949
     ],
     [
      106.749396,
      10.8767632
     ],
     [
      106.7483768,
      10.8782166
     ],
     [
      106.7471969,
      10.8773867
     ],
     [
      106.744687,
      10.8800774
     ],
     [
      106.7456581,
      10.8807856
     ],
     [
      106.7449812,
      10.8816265
     ],
     [
      106.7432901,
      10.8804375
     ],
     [
      106.7411417,
      10.8814406
     ],
     [
      106.7384029,
      10.8794311
     ],
     [
      106.7366584,
      10.8806
     ],
     [
      106.7360653,
      10.8796048
     ],
     [
      106.7341768,
      10.8805112
     ],
     [
      106.7368171,
      10.8847474
     ],
     [
      106.7314616,
      10.8859131
     ],
     [
      106.7328295,
      10.8907332
     ],
     [
      106.7295653,
      10.8896769
     ],
     [
      106.7286801,
      10.8910624
     ],
     [
      106.727496,
      10.89019
     ],
     [
      106.717641,
      10.8964358
     ],
     [
      106.7131045,
      10.8894264
     ],
     [
      106.7145051,
      10.8881524
     ],
     [
      106.7138627,
      10.8875052
     ],
     [
      106.7144266,
      10.8868687
     ],
     [
      106.7155501,
      10.8877036
     ],
     [
      106.7175863,
      10.8877483
     ],
     [
      106.716614,
      10.8846164
     ],
     [
      106.7178787,
      10.8809826
     ],
     [
      106.7139831,
      10.8793655
     ],
     [
      106.7126469,
      10.8778823
     ],
     [
      106.713841,
      10.8778073
     ],
     [
      106.7140468,
      10.8769959
     ],
     [
      106.7152941,
      10.8774166
     ],
     [
      106.7214372,
      10.8763851
     ],
     [
      106.7236453,
      10.8717823
     ],
     [
      106.7150398,
      10.8726183
     ],
     [
      106.7154729,
      10.8683837
     ],
     [
      106.7131142,
      10.8657067
     ],
     [
      106.7005135,
      10.8680845
     ],
     [
      106.6956213,
      10.8726752
     ],
     [
      106.6897724,
      10.8804197
     ],
     [
      106.6891144,
      10.8849742
     ],
     [
      106.6940188,
      10.8936331
     ],
     [
      106.6943267,
      10.8981028
     ],
     [
      106.692787,
      10.9041992
     ],
     [
      106.6877469,
      10.916195
     ],
     [
      106.684712,
      10.9212072
     ],
     [
      106.6812731,
      10.9233625
     ],
     [
      106.6783804,
      10.9234185
     ],
     [
      106.6682663,
      10.9208418
     ],
     [
      106.6628122,
      10.9226306
     ],
     [
      106.6572929,
      10.9258852
     ],
     [
      106.6557168,
      10.9219588
     ],
     [
      106.653504,
      10.9196179
     ],
     [
      106.6458819,
      10.919811
     ],
     [
      106.6385195,
      10.9161742
     ],
     [
      106.6302376,
      10.9162121
     ],
     [
      106.6220677,
      10.9144584
     ],
     [
      106.6004518,
      10.9177979
     ],
     [
      106.6011921,
      10.9230665
     ],
     [
      106.5814577,
      10.929341
     ],
     [
      106.581576,
      10.9261048
     ],
     [
      106.5825949,
      10.9250367
     ],
     [
      106.5841641,
      10.9196599
     ],
     [
      106.5650412,
      10.9191267
     ],
     [
      106.5613747,
      10.9170763
     ],
     [
      106.5370906,
      10.9159834
     ],
     [
      106.4956203,
      10.9208398
     ],
     [
      106.5315364,
      10.9026658
     ],
     [
      106.5328728,
      10.8999003
     ],
     [
      106.5200679,
      10.8522195
     ],
     [
      106.5045619,
      10.7889222
     ],
     [
      106.4885044,
      10.7754906
     ],
     [
      106.4635618,
      10.7565046
     ]
    ]
   ],
   [
    [
     [
      106.9637064,
      10.4193628
     ],
     [
      106.9637292,
      10.418873
     ],
     [
      106.9644596,
      10.4187301
     ],
     [
      106.9637064,
      10.4193628
     ]
    ]
   ],
   [
    [
     [
      106.9698848,
      10.4543892
     ],
     [
      106.9706329,
      10.4539618
     ],
     [
      106.9708354,
      10.454845
     ],
     [
      106.9698848,
      10.4543892
     ]
    ]
   ],
   [
    [
     [
      106.9717469,
      10.4686544
     ],
     [
      106.9729592,
      10.4669671
     ],
     [
      106.9736133,
      10.4635359
     ],
     [
      106.9731984,
      10.4606217
     ],
     [
      106.9744465,
      10.459317
     ],
     [
      106.9738828,
      10.4599575
     ],
     [
      106.9760421,
      10.4608484
     ],
     [
      106.9767577,
      10.4602633
     ],
     [
      106.976122,
      10.4628537
     ],
     [
      106.9772965,
      10.4639949
     ],
     [
      106.9763285,
      10.4635536
     ],
     [
      106.9758181,
      10.4651565
     ],
     [
      106.9768466,
      10.4656018
     ],
     [
      106.9758012,
      10.4652845
     ],
     [
      106.9753333,
      10.4671924
     ],
     [
      106.9759121,
      10.4687352
     ],
     [
      106.977013,
      10.4684345
     ],
     [
      106.9759758,
      10.4688431
     ],
     [
      106.9776853,
      10.4713561
     ],
     [
      106.9787619,
      10.4709602
     ],
     [
      106.9777466,
      10.4714712
     ],
     [
      106.9778381,
      10.4740853
     ],
     [
      106.9742774,
      10.4706847
     ],
     [
      106.9732111,
      10.4712055
     ],
     [
      106.9717469,
      10.4686544
     ]
    ]
   ],
   [
    [
     [
      106.9830647,
      10.4957543
     ],
     [
      106.9851702,
      10.4912044
     ],
     [
      106.9852847,
      10.4922625
     ],
     [
      106.9888791,
      10.4955941
     ],
     [
      106.989543,
      10.4973725
     ],
     [
      106.9917649,
      10.4988249
     ],
     [
      106.9908686,
      10.5000191
     ],
     [
      106.9918038,
      10.5001072
     ],
     [
      106.9913082,
      10.50068
     ],
     [
      106.9921814,
      10.5013688
     ],
     [
      106.9899833,
      10.504772
     ],
     [
      106.9877902,
      10.5043472
     ],
     [
      106.9893613,
      10.5036225
     ],
     [
      106.9884441,
      10.5020323
     ],
     [
      106.9873724,
      10.5021005
     ],
     [
      106.9866813,
      10.5034206
     ],
     [
      106.9846301,
      10.4996245
     ],
     [
      106.9852873,
      10.4984083
     ],
     [
      106.9838864,
      10.4984222
     ],
     [
      106.9830647,
      10.4957543
     ]
    ]
   ],
   [
    [
     [
      106.9831572,
      10.480061
     ],
     [
      106.9874975,
      10.4803508
     ],
     [
      106.9854804,
      10.485568
     ],
     [
      106.9846614,
      10.4849845
     ],
     [
      106.9831572,
      10.480061
     ]
    ]
   ],
   [
    [
     [
      106.9878347,
      10.5033367
     ],
     [
      106.988644,
      10.502975
     ],
     [
      106.9882473,
      10.5035698
     ],
     [
      106.9878347,
      10.5033367
     ]
    ]
   ]
  ]
 }
}
